H1 CPF 01  gfz 2021 12 11 13  8452 terrasarx 
H2 0702601  6201 31698    2021 12 11 00 59 42 2021 12 16 00 00 42   120 1 1  0 0 0
H9
10 0 59562   9342.000000  0    4008022.397   5365273.805   1608464.714
10 0 59562   9462.000000  0    4244094.180   5378521.204    717176.080
10 0 59562   9582.000000  0    4405364.390   5294280.008   -186737.700
10 0 59562   9702.000000  0    4487366.937   5115412.624  -1087367.690
10 0 59562   9822.000000  0    4487101.892   4846513.696  -1968880.018
10 0 59562   9942.000000  0    4403114.245   4493797.610  -2815801.604
10 0 59562  10062.000000  0    4235541.048   4064954.930  -3613297.525
10 0 59562  10182.000000  0    3986125.030   3568980.832  -4347433.268
10 0 59562  10302.000000  0    3658197.045   3015981.470  -5005415.865
10 0 59562  10422.000000  0    3256627.612   2416963.398  -5575811.912
10 0 59562  10542.000000  0    2787748.418   1783610.897  -6048738.065
10 0 59562  10662.000000  0    2259246.924   1128055.963  -6416021.559
10 0 59562  10782.000000  0    1680036.286    462646.649  -6671329.033
10 0 59562  10902.000000  0    1060105.044   -200281.751  -6810265.057
10 0 59562  11022.000000  0     410345.701   -848631.169  -6830441.208
10 0 59562  11142.000000  0    -257633.937  -1470756.517  -6731510.757
10 0 59562  11262.000000  0    -931712.310  -2055668.517  -6515173.605
10 0 59562  11382.000000  0   -1599468.870  -2593223.747  -6185151.520
10 0 59562  11502.000000  0   -2248407.743  -3074298.614  -5747130.370
10 0 59562  11622.000000  0   -2866186.815  -3490943.837  -5208672.490
10 0 59562  11742.000000  0   -3440851.277  -3836519.272  -4579098.618
10 0 59562  11862.000000  0   -3961066.409  -4105804.769  -3869337.012
10 0 59562  11982.000000  0   -4416343.868  -4295084.425  -3091743.249
10 0 59562  12102.000000  0   -4797258.012  -4402202.874  -2259891.964
10 0 59562  12222.000000  0   -5095646.332  -4426590.958  -1388342.812
10 0 59562  12342.000000  0   -5304788.922  -4369259.893   -492385.101
10 0 59562  12462.000000  0   -5419562.312  -4232763.728    412234.277
10 0 59562  12582.000000  0   -5436563.231  -4021130.557   1309595.083
10 0 59562  12702.000000  0   -5354197.440  -3739762.677   2183893.749
10 0 59562  12822.000000  0   -5172731.518  -3395308.281   3019730.796
10 0 59562  12942.000000  0   -4894306.871  -2995509.269   3802389.510
10 0 59562  13062.000000  0   -4522915.858  -2549028.652   4518101.137
10 0 59562  13182.000000  0   -4064339.632  -2065261.392   5154289.526
10 0 59562  13302.000000  0   -3526051.999  -1554135.476   5699790.132
10 0 59562  13422.000000  0   -2917091.971  -1025907.448   6145043.284
10 0 59562  13542.000000  0   -2247905.396   -490954.881   6482258.307
10 0 59562  13662.000000  0   -1530159.276     40429.079   6705543.295
10 0 59562  13782.000000  0    -776534.878    558232.395   6811000.653
10 0 59562  13902.000000  0       -503.217   1052911.270   6796790.903
10 0 59562  14022.000000  0     783915.187   1515565.465   6663162.862
10 0 59562  14142.000000  0    1562402.955   1938098.643   6412449.600
10 0 59562  14262.000000  0    2320606.274   2313360.046   6049029.634
10 0 59562  14382.000000  0    3044399.246   2635266.215   5579255.954
10 0 59562  14502.000000  0    3720149.746   2898901.711   5011351.542
10 0 59562  14622.000000  0    4334979.642   3100596.338   4355270.495
10 0 59562  14742.000000  0    4877014.536   3237977.144   3622529.545
10 0 59562  14862.000000  0    5335622.889   3309995.197   2826009.372
10 0 59562  14982.000000  0    5701631.616   3316922.861   1979725.937
10 0 59562  15102.000000  0    5967515.497   3260325.199   1098581.433
10 0 59562  15222.000000  0    6127556.953   3143004.354    198095.275
10 0 59562  15342.000000  0    6177969.440   2968917.213   -705878.165
10 0 59562  15462.000000  0    6116981.998   2743068.391  -1597437.544
10 0 59562  15582.000000  0    5944882.777   2471383.568  -2460921.389
10 0 59562  15702.000000  0    5664022.235   2160566.262  -3281189.877
10 0 59562  15822.000000  0    5278774.833   1817939.553  -4043894.076
10 0 59562  15942.000000  0    4795461.202   1451278.047  -4735727.941
10 0 59562  16062.000000  0    4222231.826   1068634.771  -5344656.155
10 0 59562  16182.000000  0    3568919.306    678168.225  -5860115.167
10 0 59562  16302.000000  0    2846861.336    287972.303  -6273186.985
10 0 59562  16422.000000  0    2068697.646    -94087.206  -6576741.954
10 0 59562  16542.000000  0    1248147.466   -460526.569  -6765550.392
10 0 59562  16662.000000  0     399769.403   -804386.629  -6836364.618
10 0 59562  16782.000000  0    -461293.802  -1119360.936  -6787967.606
10 0 59562  16902.000000  0   -1319578.520  -1399907.779  -6621190.991
10 0 59562  17022.000000  0   -2159571.600  -1641345.509  -6338903.122
10 0 59562  17142.000000  0   -2965984.756  -1839929.460  -5945964.113
10 0 59562  17262.000000  0   -3724027.020  -1992909.467  -5449151.311
10 0 59562  17382.000000  0   -4419675.681  -2098568.264  -4857054.797
10 0 59562  17502.000000  0   -5039938.884  -2156238.467  -4179939.843
10 0 59562  17622.000000  0   -5573104.151  -2166298.152  -3429579.577
10 0 59562  17742.000000  0   -6008968.951  -2130144.813  -2619058.278
10 0 59562  17862.000000  0   -6339046.460  -2050147.347  -1762547.580
10 0 59562  17982.000000  0   -6556741.932  -1929577.175   -875059.748
10 0 59562  18102.000000  0   -6657494.241  -1772519.725     27818.419
10 0 59562  18222.000000  0   -6638878.710  -1583768.059    930205.428
10 0 59562  18342.000000  0   -6500667.235  -1368700.935   1816213.002
10 0 59562  18462.000000  0   -6244843.729  -1133149.091   2670235.105
10 0 59562  18582.000000  0   -5875574.823   -883253.007   3477231.229
10 0 59562  18702.000000  0   -5399136.871   -625315.072   4222998.802
10 0 59562  18822.000000  0   -4823799.064   -365650.976   4894427.157
10 0 59562  18942.000000  0   -4159670.134   -110444.070   5479727.148
10 0 59562  19062.000000  0   -3418512.293    134394.669   5968636.357
10 0 59562  19182.000000  0   -2613523.688    363357.434   6352595.108
10 0 59562  19302.000000  0   -1759096.397    571457.838   6624890.282
10 0 59562  19422.000000  0    -870554.360    754335.060   6780767.041
10 0 59562  19542.000000  0      36123.370    908342.605   6817505.791
10 0 59562  19662.000000  0     944589.401   1030619.339   6734466.097
10 0 59562  19782.000000  0    1838421.508   1119142.579   6533097.316
10 0 59562  19902.000000  0    2701418.464   1172761.835   6216914.925
10 0 59562  20022.000000  0    3517893.984   1191212.568   5791443.830
10 0 59562  20142.000000  0    4272964.691   1175109.978   5264126.692
10 0 59562  20262.000000  0    4952824.601   1125923.013   4644199.952
10 0 59562  20382.000000  0    5545005.540   1045929.035   3942539.558
10 0 59562  20502.000000  0    6038616.372    938150.120   3171472.977
10 0 59562  20622.000000  0    6424552.582    806271.731   2344562.279
10 0 59562  20742.000000  0    6695673.399    654545.370   1476364.676
10 0 59562  20862.000000  0    6846942.940    487678.497    582170.750
10 0 59562  20982.000000  0    6875528.774    310713.223   -322271.830
10 0 59562  21102.000000  0    6780857.134    128897.330  -1221045.075
10 0 59562  21222.000000  0    6564621.279    -52448.715  -2098349.863
10 0 59562  21342.000000  0    6230744.210   -228065.933  -2938790.828
10 0 59562  21462.000000  0    5785298.021   -392888.550  -3727651.251
10 0 59562  21582.000000  0    5236381.357   -542169.606  -4451152.721
10 0 59562  21702.000000  0    4593958.592   -671596.938  -5096693.245
10 0 59562  21822.000000  0    3869667.460   -777397.295  -5653060.090
10 0 59562  21942.000000  0    3076599.088   -856427.710  -6110616.169
10 0 59562  22062.000000  0    2229054.314   -906251.244  -6461456.379
10 0 59562  22182.000000  0    1342283.024   -925194.899  -6699532.270
10 0 59562  22302.000000  0     432211.415   -912391.224  -6820746.135
10 0 59562  22422.000000  0    -484840.225   -867801.248  -6823014.129
10 0 59562  22542.000000  0   -1392443.425   -792218.999  -6706297.597
10 0 59562  22662.000000  0   -2274349.302   -687257.630  -6472604.064
10 0 59562  22782.000000  0   -3114772.991   -555317.130  -6125955.047
10 0 59562  22902.000000  0   -3898669.897   -399534.526  -5672324.687
10 0 59562  23022.000000  0   -4612004.600   -223716.769  -5119548.153
10 0 59562  23142.000000  0   -5242004.487    -32257.397  -4477197.010
10 0 59562  23262.000000  0   -5777394.865    169961.219  -3756425.657
10 0 59562  23382.000000  0   -6208611.691    377679.698  -2969787.039
10 0 59562  23502.000000  0   -6527984.835    585384.293  -2131020.302
10 0 59562  23622.000000  0   -6729887.547    787438.739  -1254813.409
10 0 59562  23742.000000  0   -6810849.237    978220.792   -356544.317
10 0 59562  23862.000000  0   -6769624.008   1152260.835    547995.902
10 0 59562  23982.000000  0   -6607214.527   1304378.908   1442886.997
10 0 59562  24102.000000  0   -6326852.682   1429817.028   2312368.159
10 0 59562  24222.000000  0   -5933934.586   1524362.722   3141125.078
10 0 59562  24342.000000  0   -5435911.177   1584460.356   3914567.887
10 0 59562  24462.000000  0   -4842138.051   1607307.629   4619092.807
10 0 59562  24582.000000  0   -4163690.051   1590935.155   5242322.684
10 0 59562  24702.000000  0   -3413145.831   1534267.344   5773322.912
10 0 59562  24822.000000  0   -2604346.940   1437163.458   6202790.601
10 0 59562  24942.000000  0   -1752134.788   1300438.377   6523213.482
10 0 59562  25062.000000  0    -872072.337   1125861.652   6728994.265
10 0 59562  25182.000000  0      19841.963    916135.970   6816541.382
10 0 59562  25302.000000  0     907464.339    674855.150   6784327.317
10 0 59562  25422.000000  0    1774796.587    406442.595   6632913.497
10 0 59562  25542.000000  0    2606273.046    116070.971   6364941.466
10 0 59562  25662.000000  0    3387040.093   -190436.119   5985091.083
10 0 59562  25782.000000  0    4103224.029   -506718.935   5500003.616
99
